[{"OBJECT_NAME":"SITRO-AIS 5 (KATYS)","OBJECT_ID":"2023-091L","EPOCH":"2026-03-09T22:36:44.932608","MEAN_MOTION":15.27079182,"ECCENTRICITY":0.00133776,"INCLINATION":97.5176,"RA_OF_ASC_NODE":132.0172,"ARG_OF_PERICENTER":94.5677,"MEAN_ANOMALY":265.709,"EPHEMERIS_TYPE":0,"CLASSIFICATION_TYPE":"U","NORAD_CAT_ID":57176,"ELEMENT_SET_NO":999,"REV_AT_EPOCH":14918,"BSTAR":0.00057530772,"MEAN_MOTION_DOT":0.00015262,"MEAN_MOTION_DDOT":0},{"OBJECT_NAME":"STARLINK-36037","OBJECT_ID":"2025-270AB","EPOCH":"2026-03-09T22:33:18.172224","MEAN_MOTION":15.27590044,"ECCENTRICITY":0.00013307,"INCLINATION":43.0039,"RA_OF_ASC_NODE":54.8088,"ARG_OF_PERICENTER":274.188,"MEAN_ANOMALY":85.882,"EPHEMERIS_TYPE":0,"CLASSIFICATION_TYPE":"U","NORAD_CAT_ID":66613,"ELEMENT_SET_NO":999,"REV_AT_EPOCH":1774,"BSTAR":0.0008442391,"MEAN_MOTION_DOT":0.00023049,"MEAN_MOTION_DDOT":0}]
